zip,city,state,latitude,longitude
20101,Dulles,VA,39.002125,-77.442066
20102,Dulles,VA,39.085309,-77.645224
20103,Dulles,VA,38.996242,-77.449952
20104,Dulles,VA,39.085309,-77.645224
20105,Aldie,VA,38.964054,-77.60878
20106,Amissville,VA,38.683116,-77.99031
20107,Arcola,VA,38.968321,-77.533263
20108,Manassas,VA,38.744685,-77.487162
20109,Manassas,VA,38.790202,-77.51294
20110,Manassas,VA,38.752269,-77.47694
20111,Manassas,VA,38.769697,-77.44915
20112,Manassas,VA,38.685117,-77.44796
20113,Manassas,VA,38.770864,-77.449443
20115,Marshall,VA,38.855848,-77.88174
20116,Marshall,VA,38.853723,-77.860127
20117,Middleburg,VA,38.983902,-77.74903
20118,Middleburg,VA,38.953454,-77.74996
20119,Catlett,VA,38.639283,-77.63866
20120,Centreville,VA,38.851221,-77.44998
20121,Centreville,VA,38.82571,-77.43964
20122,Centreville,VA,38.831813,-77.288755
20124,Clifton,VA,38.797424,-77.39237
20128,Orlean,VA,38.741639,-77.977432
20129,Paeonian Springs,VA,39.149032,-77.61471
20130,Paris,VA,39.008532,-77.94907
20131,Philomont,VA,39.057952,-77.743423
20132,Purcellville,VA,39.146479,-77.72798
20134,Purcellville,VA,39.152187,-77.702576
20135,Bluemont,VA,39.080229,-77.87192
20136,Bristow,VA,38.7475,-77.56917
20137,Broad Run,VA,38.810629,-77.7057
20138,Calverton,VA,38.630238,-77.67295
20139,Casanova,VA,38.651558,-77.70361
20140,Rectortown,VA,38.918124,-77.87243
20141,Round Hill,VA,39.119917,-77.77328
20142,Round Hill,VA,39.130665,-77.774665
20143,Catharpin,VA,38.858613,-77.56391
20144,Delaplane,VA,38.918435,-77.9255
20146,Ashburn,VA,39.085309,-77.645224
20147,Ashburn,VA,39.041978,-77.49064
20148,Ashburn,VA,39.020637,-77.52276
20149,Ashburn,VA,39.085309,-77.645224
20151,Chantilly,VA,38.889111,-77.4363
20152,Chantilly,VA,38.90371,-77.5038
20153,Chantilly,VA,38.831813,-77.288755
20155,Gainesville,VA,38.803732,-77.62404
20156,Gainesville,VA,38.721912,-77.466897
20158,Hamilton,VA,39.137667,-77.66186
20159,Hamilton,VA,39.133855,-77.662072
20160,Lincoln,VA,39.098479,-77.688338
20163,Sterling,VA,39.085309,-77.645224
20164,Sterling,VA,39.011909,-77.39295
20165,Sterling,VA,39.044855,-77.38701
20166,Sterling,VA,39.004276,-77.43442
20167,Sterling,VA,39.085309,-77.645224
20168,Haymarket,VA,38.721912,-77.466897
20169,Haymarket,VA,38.860551,-77.64947
20170,Herndon,VA,38.977109,-77.38527
20171,Herndon,VA,38.931479,-77.40085
20172,Herndon,VA,38.831813,-77.288755
20175,Leesburg,VA,39.080037,-77.58025
20176,Leesburg,VA,39.138978,-77.54519
20177,Leesburg,VA,39.158095,-77.666863
20178,Leesburg,VA,39.072918,-77.608014
20180,Lovettsville,VA,39.261906,-77.64239
20181,Nokesville,VA,38.69835,-77.57365
20182,Nokesville,VA,38.700866,-77.585708
20184,Upperville,VA,38.997904,-77.87487
20185,Upperville,VA,38.992978,-77.879855
20186,Warrenton,VA,38.707135,-77.8145
20187,Warrenton,VA,38.735202,-77.73717
20188,Warrenton,VA,38.765619,-77.820293
20189,Dulles,VA,38.9,-77.04
20190,Reston,VA,38.959673,-77.3462
20191,Reston,VA,38.934709,-77.3469
20192,Herndon,VA,38.831813,-77.288755
20193,Reston,VA,38.831813,-77.288755
20194,Reston,VA,38.977362,-77.34658
20195,Reston,VA,38.831813,-77.288755
20196,Reston,VA,38.831813,-77.288755
20197,Waterford,VA,39.191333,-77.63118
20198,The Plains,VA,38.889848,-77.75907
20199,Dulles,VA,39.085309,-77.645224
20598,Dhs,VA,38.86,-77.05
22002,Amissville,VA,38.691448,-78.137019
22003,Annandale,VA,38.830345,-77.21387
22009,Burke,VA,38.831813,-77.288755
22015,Burke,VA,38.788646,-77.27888
22025,Dumfries,VA,38.6,-77.34
22026,Dumfries,VA,38.582319,-77.32722
22027,Dunn Loring,VA,38.893921,-77.21976
22030,Fairfax,VA,38.846212,-77.32787
22031,Fairfax,VA,38.859675,-77.26167
22032,Fairfax,VA,38.821753,-77.29293
22033,Fairfax,VA,38.874879,-77.38642
22034,Fairfax,VA,38.831813,-77.288755
22035,Fairfax,VA,38.855714999999996,-77.361633
22036,Fairfax,VA,38.735114,-77.07965
22037,Fairfax,VA,38.831813,-77.288755
22038,Fairfax,VA,38.852849,-77.30199
22039,Fairfax Station,VA,38.760747,-77.31684
22040,Falls Church,VA,38.884177,-77.171752
22041,Falls Church,VA,38.849136,-77.14081
22042,Falls Church,VA,38.864669,-77.18781
22043,Falls Church,VA,38.901311,-77.19777
22044,Falls Church,VA,38.859645,-77.15328
22046,Falls Church,VA,38.886311,-77.18098
22047,Falls Church,VA,38.831813,-77.288755
22060,Fort Belvoir,VA,38.71299,-77.16615
22066,Great Falls,VA,39.003809,-77.30165
22067,Greenway,VA,38.96451,-77.233103
22079,Lorton,VA,38.695915,-77.20122
22081,Merrifield,VA,38.873861,-77.234454
22082,Merrifield,VA,38.831813,-77.288755
22092,Herndon,VA,38.831813,-77.288755
22093,Ashburn,VA,39.085309,-77.645224
22095,Herndon,VA,38.831813,-77.288755
22096,Reston,VA,38.831813,-77.288755
22101,McLean,VA,38.93276,-77.1677
22102,McLean,VA,38.938664,-77.22196
22103,West Mclean,VA,38.831813,-77.288755
22106,McLean,VA,38.831813,-77.288755
22107,Mc Lean,VA,38.93,-77.18
22108,Mc Lean,VA,38.93,-77.18
22109,McLean,VA,38.920165,-77.229043
22116,Merrifield,VA,38.871469,-77.234428
22118,Merrifield,VA,38.831813,-77.288755
22119,Merrifield,VA,38.831813,-77.288755
22120,Merrifield,VA,38.831813,-77.288755
22121,Mount Vernon,VA,38.830912,-77.432252
22122,Newington,VA,38.831813,-77.288755
22124,Oakton,VA,38.88619,-77.32402
22125,Occoquan,VA,38.683295,-77.26044
22134,Quantico,VA,38.503139,-77.33372
22135,Quantico,VA,38.721912,-77.466897
22150,Springfield,VA,38.778243,-77.18562
22151,Springfield,VA,38.803813,-77.20821
22152,Springfield,VA,38.775716,-77.23131
22153,Springfield,VA,38.745164,-77.23535
22156,Springfield,VA,38.831813,-77.288755
22158,Springfield,VA,38.831813,-77.288755
22159,Springfield,VA,38.831813,-77.288755
22160,Springfield,VA,38.831813,-77.288755
22161,Springfield,VA,38.807462,-77.219354
22172,Triangle,VA,38.557527,-77.35726
22180,Vienna,VA,38.894711,-77.25337
22181,Vienna,VA,38.896361,-77.29102
22182,Vienna,VA,38.922478,-77.2566
22183,Vienna,VA,38.831813,-77.288755
22184,Vienna,VA,38.831813,-77.288755
22185,Vienna,VA,38.831813,-77.288755
22191,Woodbridge,VA,38.63275,-77.26786
22192,Woodbridge,VA,38.678451,-77.30657
22193,Woodbridge,VA,38.646375,-77.34469
22194,Woodbridge,VA,38.721912,-77.466897
22195,Woodbridge,VA,38.721912,-77.466897
22199,Lorton,VA,38.831813,-77.288755
22201,Arlington,VA,38.885337,-77.09512
22202,Arlington,VA,38.856795,-77.05628
22203,Arlington,VA,38.874979,-77.11455
22204,Arlington,VA,38.860247,-77.09627
22205,Arlington,VA,38.88275,-77.13999
22206,Arlington,VA,38.843466,-77.08973
22207,Arlington,VA,38.903697,-77.12749
22209,Arlington,VA,38.893241,-77.07453
22210,Arlington,VA,38.880811,-77.11295
22211,Ft Myer,VA,38.878215,-77.06845
22212,Arlington,VA,38.880811,-77.11295
22213,Arlington,VA,38.894457,-77.16396
22214,Arlington,VA,38.880811,-77.11295
22215,Arlington,VA,38.880811,-77.11295
22216,Arlington,VA,38.880811,-77.11295
22217,Arlington,VA,38.880811,-77.11295
22218,Arlington,VA,38.880811,-77.11295
22219,Arlington,VA,38.880811,-77.11295
22222,Arlington,VA,38.861462,-77.053599
22223,Arlington,VA,38.880811,-77.11295
22225,Arlington,VA,38.880811,-77.11295
22226,Arlington,VA,38.883358,-77.10281
22227,Arlington,VA,38.880811,-77.11295
22229,Arlington,VA,38.880811,-77.11295
22230,Arlington,VA,38.87972,-77.110817
22234,Arlington,VA,38.880811,-77.11295
22240,Arlington,VA,38.856623,-77.051788
22241,Arlington,VA,38.880811,-77.11295
22242,Arlington,VA,38.850879,-77.052336
22243,Arlington,VA,38.86045,-77.051569
22244,Arlington,VA,38.854522,-77.052035
22245,Arlington,VA,38.851773,-77.052296
22246,Arlington,VA,38.880811,-77.11295
22301,Alexandria,VA,38.819863,-77.05854
22302,Alexandria,VA,38.829512,-77.08204
22303,Alexandria,VA,38.792863,-77.07964
22304,Alexandria,VA,38.813013,-77.11667
22305,Alexandria,VA,38.836779,-77.06418
22306,Alexandria,VA,38.757214,-77.08666
22307,Alexandria,VA,38.774863,-77.0593
22308,Alexandria,VA,38.728464,-77.05701
22309,Alexandria,VA,38.725214,-77.10734
22310,Alexandria,VA,38.782013,-77.12125
22311,Alexandria,VA,38.837312,-77.12064
22312,Alexandria,VA,38.817362,-77.1537
22313,Alexandria,VA,38.815762,-77.09005
22314,Alexandria,VA,38.806163,-77.05139
22315,Alexandria,VA,38.757924,-77.15284
22320,Alexandria,VA,38.804413,-77.046699
22321,Alexandria,VA,38.831813,-77.288755
22331,Alexandria,VA,38.801342,-77.070733
22332,Alexandria,VA,38.803142,-77.072679
22333,Alexandria,VA,38.815762,-77.09005
22334,Alexandria,VA,38.815762,-77.09005
22336,Alexandria,VA,38.815762,-77.09005
22350,Alexandria,VA,48.31,-2.12
22393,Fishersville,VA,38.103819,-78.963004
22401,Fredericksburg,VA,38.301829,-77.47077
22402,Fredericksburg,VA,38.299613,-77.489666
22403,Fredericksburg,VA,38.417273,-77.460814
22404,Fredericksburg,VA,38.298305,-77.489913
22405,Fredericksburg,VA,38.317636,-77.43297
22406,Fredericksburg,VA,38.387261,-77.54676
22407,Fredericksburg,VA,38.271028,-77.5559
22408,Fredericksburg,VA,38.236023,-77.46111
22412,Fredericksburg,VA,38.184716,-77.662559
22427,Bowling Green,VA,38.042346,-77.30833
22428,Bowling Green,VA,38.014536,-77.355902
22430,Brooke,VA,38.385704,-77.374292
22432,Burgess,VA,37.860549,-76.35637
22433,Burr Hill,VA,38.343691,-77.85964
22435,Callao,VA,37.996825,-76.56435
22436,Caret,VA,38.069014,-77.09611
22437,Center Cross,VA,37.790946,-76.78764
22438,Champlain,VA,38.041706,-77.005
22442,Coles Point,VA,38.121793,-76.79025
22443,Colonial Beach,VA,38.22653,-76.97442
22446,Corbin,VA,38.171755,-77.408163
22448,Dahlgren,VA,38.340124,-77.03273
22451,Dogue,VA,38.271077,-77.17261
22454,Dunnsville,VA,37.854791,-76.81298
22456,Edwardsville,VA,37.852316,-76.40511
22460,Farnham,VA,37.858952,-76.63263
22463,Garrisonville,VA,38.468432,-77.461213
22469,Hague,VA,38.093956,-76.64055
22471,Hartwood,VA,38.39933,-77.581351
22472,Haynesville,VA,37.950511,-76.636722
22473,Heathsville,VA,37.892668,-76.36307
22476,Hustle,VA,38.036866,-77.08033
22480,Irvington,VA,37.66871,-76.41038
22481,Jersey,VA,38.271077,-77.17261
22482,Kilmarnock,VA,37.733327,-76.34389
22485,King George,VA,38.277837,-77.1642
22486,Irvington,VA,37.665713,-76.420763
22488,Kinsale,VA,38.046358,-76.57924
22501,Ladysmith,VA,38.015899,-77.559298
22503,Lancaster,VA,37.732696,-76.51554
22504,Laneview,VA,37.763552,-76.72961
22507,Lively,VA,37.762848,-76.49749
22508,Locust Grove,VA,38.326624,-77.76987
22509,Loretto,VA,38.104829,-77.0743
22511,Lottsburg,VA,37.991772,-76.48985
22513,Merry Point,VA,37.750261,-76.509615
22514,Milford,VA,37.988674,-77.29047
22517,Mollusk,VA,37.75028,-76.578109
22520,Montross,VA,38.129822,-76.76155
22523,Morattico,VA,37.792761,-76.60933
22524,Mount Holly,VA,38.118186,-76.680504
22526,Ninde,VA,38.271077,-77.17261
22528,Nuttsville,VA,37.713175,-76.409946
22529,Oldhams,VA,38.006793,-76.68218
22530,Ophelia,VA,37.90938,-76.293436
22534,Partlow,VA,38.08157,-77.66795
22535,Port Royal,VA,38.164219,-77.18217
22538,Rappahannock Academy,VA,38.22172,-77.26648
22539,Reedville,VA,37.854233,-76.27848
22542,Rhoadesville,VA,38.296355,-77.88379
22544,Rollins Fork,VA,38.271077,-77.17261
22545,Ruby,VA,38.508611,-77.542957
22546,Ruther Glen,VA,37.95969,-77.47733
22547,Sealston,VA,38.271077,-77.17261
22548,Sharps,VA,37.825956,-76.70563
22551,Spotsylvania,VA,38.17,-77.7
22552,Sparta,VA,38.009438,-77.225139
22553,Spotsylvania,VA,38.207275,-77.64378
22554,Stafford,VA,38.460395,-77.43266
22555,Stafford,VA,38.417273,-77.460814
22556,Stafford,VA,38.42,-77.4
22558,Stratford,VA,38.121793,-76.79025
22560,Tappahannock,VA,37.916172,-76.90656
22565,Thornburg,VA,38.137216,-77.518865
22567,Unionville,VA,38.233223,-77.91258
22570,Village,VA,37.947224,-76.615358
22572,Warsaw,VA,37.957869,-76.75725
22576,Weems,VA,37.680124,-76.44242
22577,Sandy Point,VA,38.067325,-76.550274
22578,White Stone,VA,37.64424,-76.36034
22579,Wicomico Church,VA,37.807268,-76.31275
22580,Woodford,VA,38.095772,-77.44404
22581,Zacata,VA,38.121793,-76.79025
22601,Winchester,VA,39.179076,-78.16653
22602,Winchester,VA,39.158386,-78.24758
22603,Winchester,VA,39.267257,-78.19396
22604,Winchester,VA,39.167603,-78.168643
22606,Newport News,VA,38.112139,-77.329674
22610,Bentonville,VA,38.822506,-78.27368
22611,Berryville,VA,39.156378,-77.97857
22620,Boyce,VA,39.061499,-78.03693
22622,Brucetown,VA,39.2543,-78.066373
22623,Chester Gap,VA,38.853733,-78.141239
22624,Clear Brook,VA,39.26582,-78.08496
22625,Cross Junction,VA,39.345906,-78.30975
22626,Fishers Hill,VA,38.980286,-78.4011
22627,Flint Hill,VA,38.765004,-78.0948
22630,Front Royal,VA,38.926615,-78.17499
22637,Gore,VA,39.247386,-78.35444
22638,Winchester,VA,39.236944,-78.288465
22639,Hume,VA,38.814086,-78.01898
22640,Huntly,VA,38.808303,-78.13578
22641,Strasburg,VA,39.076317,-78.39617
22642,Linden,VA,38.932178,-78.06051
22643,Markham,VA,38.905106,-77.98948
22644,Maurertown,VA,38.944011,-78.48125
22645,Middletown,VA,39.023035,-78.2809
22646,Millwood,VA,39.069682,-78.03752
22649,Middletown,VA,39.004774,-78.247806
22650,Rileyville,VA,38.76592,-78.36545
22651,Front Royal,VA,38.947215,-78.213304
22652,Fort Valley,VA,38.823987,-78.4531
22654,Star Tannery,VA,39.04494,-78.47377
22655,Stephens City,VA,39.07814,-78.20713
22656,Stephenson,VA,39.230131,-78.09992
22657,Strasburg,VA,39.00127,-78.36485
22660,Toms Brook,VA,38.949013,-78.43921
22663,White Post,VA,39.045019,-78.12417
22664,Woodstock,VA,38.881558,-78.51586
22701,Culpeper,VA,38.459521,-77.99875
22709,Aroda,VA,38.312548,-78.23622
22711,Banco,VA,38.476275,-78.2729
22712,Bealeton,VA,38.5593,-77.75728
22713,Boston,VA,38.549388,-78.15309
22714,Brandy Station,VA,38.512989,-77.89529
22715,Brightwood,VA,38.414359,-78.18321
22716,Castleton,VA,38.627135,-78.11341
22718,Elkwood,VA,38.493501,-77.82067
22719,Etlan,VA,38.527816,-78.25117
22720,Goldvein,VA,38.474222,-77.64361
22721,Graves Mill,VA,38.428509,-78.267848
22722,Haywood,VA,38.452043,-78.24197
22723,Hood,VA,38.331957,-78.3774
22724,Jeffersonton,VA,38.630345,-77.89777
22725,Leon,VA,38.428509,-78.267848
22726,Lignum,VA,38.411845,-77.82208
22727,Madison,VA,38.393351,-78.28737
22728,Midland,VA,38.587503,-77.70952
22729,Mitchells,VA,38.373645,-78.0165
22730,Oakpark,VA,38.365699,-78.18604
22731,Pratts,VA,38.345179,-78.26151
22732,Radiant,VA,38.310141,-78.20098
22733,Rapidan,VA,38.324175,-78.05877
22734,Remington,VA,38.52916,-77.80274
22735,Reva,VA,38.477063,-78.17517
22736,Richardsville,VA,38.388311,-77.68111
22737,Rixeyville,VA,38.588409,-77.98995
22738,Rochelle,VA,38.303414,-78.28937
22739,Somerville,VA,38.505945,-77.59557
22740,Sperryville,VA,38.636896,-78.24
22741,Stevensburg,VA,38.442247,-77.8962
22742,Sumerduck,VA,38.456916,-77.7009
22743,Syria,VA,38.509556,-78.33721
22746,Viewtown,VA,38.638635,-78.03061
22747,Washington,VA,38.725801,-78.16767
22748,Wolftown,VA,38.372652,-78.380509
22749,Woodville,VA,38.629058,-78.18057
22801,Harrisonburg,VA,38.426786,-78.88153
22802,Harrisonburg,VA,38.477752,-78.86302
22803,Harrisonburg,VA,38.51,-78.94
22807,Harrisonburg,VA,38.440898,-78.874173
22810,Basye,VA,38.81913,-78.77149
22811,Bergton,VA,38.797789,-78.96672
22812,Bridgewater,VA,38.398049,-79.00071
22815,Broadway,VA,38.619654,-78.80513
22820,Criders,VA,38.725738,-79.01957
22821,Dayton,VA,38.436873,-78.99039
22824,Edinburg,VA,38.828628,-78.60964
22827,Elkton,VA,38.404364,-78.62907
22830,Fulks Run,VA,38.637545,-78.95205
22831,Hinton,VA,38.584516,-79.04328
22832,Keezletown,VA,38.453741,-78.78234
22833,Lacey Spring,VA,38.528361,-78.855172
22834,Linville,VA,38.544652,-78.86564
22835,Luray,VA,38.665615,-78.45621
22840,McGaheysville,VA,38.387721,-78.73452
22841,Mount Crawford,VA,38.358334,-78.90667
22842,Mount Jackson,VA,38.772409,-78.69461
22843,Mount Solon,VA,38.337507,-79.11629
22844,New Market,VA,38.652274,-78.66417
22845,Orkney Springs,VA,38.788499,-78.81488
22846,Penn Laird,VA,38.371616,-78.79742
22847,Quicksburg,VA,38.704494,-78.70088
22848,Pleasant Valley,VA,38.384681,-78.891422
22849,Shenandoah,VA,38.49696,-78.61997
22850,Singers Glen,VA,38.553225,-78.92206
22851,Stanley,VA,38.567459,-78.50696
22853,Timberville,VA,38.641556,-78.76258
22865,Luray,VA,38.65845,-78.426788
22875,Luray,VA,38.665568,-78.466716
22880,Waynesboro,VA,38.058102,-78.878493
22901,Charlottesville,VA,38.072402,-78.50149
22902,Charlottesville,VA,38.00847,-78.47803
22903,Charlottesville,VA,38.026342,-78.5348
22904,Charlottesville,VA,38.040101,-78.485066
22905,Charlottesville,VA,38.040101,-78.485066
22906,Charlottesville,VA,38.040101,-78.485066
22907,Charlottesville,VA,38.040101,-78.485066
22908,Charlottesville,VA,38.040101,-78.485066
22909,Charlottesville,VA,38.024474,-78.448214
22910,Charlottesville,VA,38.040101,-78.485066
22911,Charlottesville,VA,38.07735,-78.42042
22920,Afton,VA,37.987812,-78.79701
22922,Arrington,VA,37.69474,-78.93251
22923,Barboursville,VA,38.167465,-78.3259
22924,Batesville,VA,38.000289,-78.72662
22931,Covesville,VA,37.890917,-78.70343
22932,Crozet,VA,38.116217,-78.71396
22935,Dyke,VA,38.254105,-78.56548
22936,Earlysville,VA,38.150083,-78.47627
22937,Esmont,VA,37.79922,-78.61263
22938,Faber,VA,37.85583,-78.77546
22939,Fishersville,VA,38.104457,-78.97416
22940,Free Union,VA,38.197583,-78.59304
22942,Gordonsville,VA,38.125214,-78.197
22943,Greenwood,VA,38.039928,-78.75894
22945,Ivy,VA,38.065383,-78.595831
22946,Keene,VA,37.855103,-78.56162
22947,Keswick,VA,38.025346,-78.32925
22948,Locust Dale,VA,38.349795,-78.11747
22949,Lovingston,VA,37.780882,-78.89239
22952,Lyndhurst,VA,37.969657,-78.95712
22953,Madison Mills,VA,38.428509,-78.267848
22954,Massies Mill,VA,37.790887,-79.00334
22957,Montpelier Station,VA,38.221405,-78.19026
22958,Nellysford,VA,37.905649,-78.90273
22959,North Garden,VA,37.935994,-78.64088
22960,Orange,VA,38.231526,-78.07923
22963,Palmyra,VA,37.871021,-78.30837
22964,Piney River,VA,37.725074,-78.99245
22965,Quinque,VA,38.330132,-78.475018
22967,Roseland,VA,37.79151,-78.98961
22968,Ruckersville,VA,38.233717,-78.41009
22969,Schuyler,VA,37.792343,-78.69417
22971,Shipman,VA,37.74747,-78.80233
22972,Somerset,VA,38.214023,-78.21596
22973,Stanardsville,VA,38.301191,-78.46396
22974,Troy,VA,37.959376,-78.26353
22976,Tyro,VA,37.840892,-79.02459
22980,Waynesboro,VA,38.076547,-78.89839
22987,White Hall,VA,38.179859,-78.618912
22989,Woodberry Forest,VA,38.292221,-78.11865
23001,Achilles,VA,37.293165,-76.41057
23002,Amelia Court House,VA,37.338511,-77.95893
23003,Ark,VA,37.432335,-76.601616
23004,Arvonia,VA,37.673369,-78.38899
23005,Ashland,VA,37.754254,-77.47465
23009,Aylett,VA,37.790757,-77.17553
23011,Barhamsville,VA,37.478184,-76.81384
23014,Beaumont,VA,37.733844,-77.888082
23015,Beaverdam,VA,37.931011,-77.64296
23017,Bellamy,VA,37.418242,-76.508402
23018,Bena,VA,37.418242,-76.508402
23021,Bohannon,VA,37.3946,-76.365710000000007
23022,Bremo Bluff,VA,37.728067,-78.26865
23023,Bruington,VA,37.777938,-76.95055
23024,Bumpass,VA,37.961187,-77.76824
23025,Cardinal,VA,37.422209,-76.37304
23027,Cartersville,VA,37.653694,-78.11902
23030,Charles City,VA,37.342306,-77.0731
23031,Christchurch,VA,37.598391,-76.447551
23032,Church View,VA,37.674655,-76.68104
23035,Cobbs Creek,VA,37.514774,-76.37543
23038,Columbia,VA,37.758949,-78.14009
23039,Crozier,VA,37.643406,-77.80709
23040,Cumberland,VA,37.522085,-78.2553
23043,Deltaville,VA,37.550168,-76.34327
23045,Diggs,VA,37.426154,-76.26844
23047,Doswell,VA,37.855002,-77.47011
23050,Dutton,VA,37.490365,-76.44118
23054,Fife,VA,37.733844,-77.888082
23055,Fork Union,VA,37.782109,-78.23472
23056,Foster,VA,37.383629,-76.36167
23058,Glen Allen,VA,37.531296,-77.416103
23059,Glen Allen,VA,37.686152,-77.53651
23060,Glen Allen,VA,37.661647,-77.52632
23061,Gloucester,VA,37.414991,-76.52959
23062,Gloucester Point,VA,37.257466,-76.49661
23063,Goochland,VA,37.69536,-77.99793
23064,Grimstead,VA,37.50519,-76.29784
23065,Gum Spring,VA,37.801783,-77.92431
23066,Gwynn,VA,37.501358,-76.28453
23067,Hadensville,VA,37.825208,-77.989878
23068,Hallieford,VA,37.492529,-76.33636
23069,Hanover,VA,37.753904,-77.33963
23070,Hardyville,VA,37.551549,-76.39294
23071,Hartfield,VA,37.533471,-76.4609
23072,Hayes,VA,37.288999,-76.47393
23075,Highland Springs,VA,37.543595,-77.32339
23076,Hudgins,VA,37.475132,-76.31316
23079,Jamaica,VA,37.748645,-76.66735
23081,Jamestown,VA,37.223482,-76.783317
23083,Jetersville,VA,37.303726,-78.11349
23084,Kents Store,VA,37.90198,-78.09647
23085,King And Queen Court Hous,VA,37.711368,-76.85843
23086,King William,VA,37.64375,-77.02508
23089,Lanexa,VA,37.435153,-76.90719
23090,Lightfoot,VA,37.235892,-76.445567
23091,Little Plymouth,VA,37.638259,-76.82858
23092,Locust Hill,VA,37.593059,-76.50694
23093,Louisa,VA,37.995103,-78.04612
23101,Macon,VA,37.553314,-77.892964
23102,Maidens,VA,37.712894,-77.82379
23103,Manakin Sabot,VA,37.639354,-77.72841
23104,Gloucester Point,VA,37.298919,-76.530276
23105,Mannboro,VA,37.345032,-77.944868
23106,Manquin,VA,37.704693,-77.20342
23107,Maryus,VA,37.28641,-76.404783
23108,Mascot,VA,37.642543,-76.73554
23109,Mathews,VA,37.43704,-76.30724
23110,Mattaponi,VA,37.571544,-76.78066
23111,Mechanicsville,VA,37.605641,-77.31536
23112,Midlothian,VA,37.427988,-77.64868
23113,Midlothian,VA,37.51338,-77.64165
23114,Midlothian,VA,37.48,-77.65
23115,Millers Tavern,VA,37.826347,-76.87751
23116,Mechanicsville,VA,37.662559,-77.36778
23117,Mineral,VA,38.007186,-77.86809
23119,Moon,VA,37.451894,-76.2904
23120,Moseley,VA,37.422868,-77.7813
23123,New Canton,VA,37.663039,-78.2868
23124,New Kent,VA,37.545276,-77.06664
23125,New Point,VA,37.342721,-76.27989
23126,Newtown,VA,37.902954,-77.14586
23127,Norge,VA,37.310451,-76.746769
23128,North,VA,37.456363,-76.43298
23129,Oilville,VA,37.698646,-77.77111
23130,Onemo,VA,37.405038,-76.27785
23131,Ordinary,VA,37.312159,-76.518831
23138,Port Haywood,VA,37.366838,-76.29577
23139,Powhatan,VA,37.55563,-77.90048
23140,Providence Forge,VA,37.438569,-77.03578
23141,Quinton,VA,37.506369,-77.15127
23146,Rockville,VA,37.725675,-77.69002
23147,Ruthville,VA,37.37956,-77.034752
23148,Saint Stephens Church,VA,37.837177,-77.05555
23149,Saluda,VA,37.5787,-76.60916
23150,Sandston,VA,37.517804,-77.28678
23153,Sandy Hook,VA,37.787745,-77.96916
23154,Schley,VA,37.418242,-76.508402
23155,Severn,VA,37.418242,-76.508402
23156,Shacklefords,VA,37.501267,-76.72389
23160,State Farm,VA,37.733844,-77.888082
23161,Stevensville,VA,37.701245,-76.92919
23162,Studley,VA,37.772187,-77.45264
23163,Susan,VA,37.357742,-76.30136
23168,Toano,VA,37.403872,-76.81744
23169,Topping,VA,37.599217,-76.45876
23170,Trevilians,VA,37.940788,-77.996956
23173,University Of Richmond,VA,37.524246,-77.493157
23175,Urbanna,VA,37.648536,-76.59872
23176,Wake,VA,37.571789,-76.41631
23177,Walkerton,VA,37.728152,-76.99901
23178,Ware Neck,VA,37.400287,-76.46089
23180,Water View,VA,37.710586,-76.63179
23181,West Point,VA,37.559878,-76.83018
23183,White Marsh,VA,37.363201,-76.532492
23184,Wicomico,VA,37.285188,-76.5298
23185,Williamsburg,VA,37.256301,-76.70024
23186,Williamsburg,VA,37.270994,-76.71722
23187,Williamsburg,VA,37.310451,-76.746769
23188,Williamsburg,VA,37.322936,-76.75793
23190,Woods Cross Roads,VA,37.482039,-76.636154
23191,Zanoni,VA,37.418242,-76.508402
23192,Montpelier,VA,37.813901,-77.68952
23201,Richmond,VA,37.541106,-77.431825
23218,Richmond,VA,37.524246,-77.493157
23219,Richmond,VA,37.541046,-77.43536
23220,Richmond,VA,37.549396,-77.45739
23221,Richmond,VA,37.557626,-77.48844
23222,Richmond,VA,37.573595,-77.42504
23223,Richmond,VA,37.544746,-77.40085
23224,Richmond,VA,37.505147,-77.46101
23225,Richmond,VA,37.51918,-77.49851
23226,Richmond,VA,37.581696,-77.51709
23227,Richmond,VA,37.606778,-77.44775
23228,Richmond,VA,37.621745,-77.48896
23229,Richmond,VA,37.593546,-77.56271
23230,Richmond,VA,37.580346,-77.48831
23231,Richmond,VA,37.482896,-77.36304
23232,Richmond,VA,37.520187,-77.408359
23233,Richmond,VA,37.622465,-77.61965
23234,Richmond,VA,37.457341,-77.4658
23235,Richmond,VA,37.522514,-77.56565
23236,Richmond,VA,37.475798,-77.58235
23237,Richmond,VA,37.406204,-77.4533
23238,Richmond,VA,37.733844,-77.888082
23240,Richmond,VA,37.524246,-77.493157
23241,Richmond,VA,37.524246,-77.493157
23242,Richmond,VA,37.531296,-77.416103
23249,Richmond,VA,37.524246,-77.493157
23250,Richmond,VA,37.507498,-77.332916
23255,Richmond,VA,37.531296,-77.416103
23260,Richmond,VA,37.524246,-77.493157
23261,Richmond,VA,37.524246,-77.493157
23266,Richmond,VA,37.567896,-77.528308
23269,Richmond,VA,37.524246,-77.493157
23270,Richmond,VA,37.524246,-77.493157
23272,Richmond,VA,37.524246,-77.493157
23273,Richmond,VA,37.524246,-77.493157
23274,Richmond,VA,37.524246,-77.493157
23275,Richmond,VA,37.524246,-77.493157
23276,Richmond,VA,37.524246,-77.493157
23278,Richmond,VA,37.524246,-77.493157
23279,Richmond,VA,37.524246,-77.493157
23280,Richmond,VA,37.637622,-77.46836
23282,Richmond,VA,37.524246,-77.493157
23284,Richmond,VA,37.549446,-77.451155
23285,Richmond,VA,37.524246,-77.493157
23286,Richmond,VA,37.524246,-77.493157
23288,Richmond,VA,37.531296,-77.416103
23289,Richmond,VA,37.531296,-77.416103
23290,Richmond,VA,37.524246,-77.493157
23291,Richmond,VA,37.524246,-77.493157
23292,Richmond,VA,37.524246,-77.493157
23293,Richmond,VA,37.524246,-77.493157
23294,Richmond,VA,37.633316,-77.54775
23295,Richmond,VA,37.55,-77.45
23297,Richmond,VA,37.389721,-77.561266
23298,Richmond,VA,37.539694,-77.42815
23301,Accomac,VA,37.713561,-75.67108
23302,Assawoman,VA,37.870022,-75.53554
23303,Atlantic,VA,37.892445,-75.51107
23304,Battery Park,VA,36.99497,-76.56901
23306,Belle Haven,VA,37.560093,-75.86182
23307,Birdsnest,VA,37.434719,-75.87767
23308,Bloxom,VA,37.828492,-75.61896
23310,Cape Charles,VA,37.26252,-75.97104
23313,Capeville,VA,37.201937,-75.952409
23314,Carrollton,VA,36.940626,-76.5378
23315,Carrsville,VA,36.740632,-76.84517
23316,Cheriton,VA,37.284061,-75.96909
23320,Chesapeake,VA,36.761698,-76.24511
23321,Chesapeake,VA,36.826239,-76.41524
23322,Chesapeake,VA,36.687543,-76.22905
23323,Chesapeake,VA,36.757815,-76.3358
23324,Chesapeake,VA,36.805717,-76.27126
23325,Chesapeake,VA,36.814897,-76.23848
23326,Chesapeake,VA,36.777015,-76.239417
23327,Chesapeake,VA,36.7085,-76.278531
23328,Chesapeake,VA,36.7085,-76.278531
23336,Chincoteague Island,VA,37.934673,-75.3678
23337,Wallops Island,VA,37.931216,-75.47192
23341,Craddockville,VA,37.577292,-75.864607
23345,Davis Wharf,VA,37.738248,-75.701449
23347,Eastville,VA,37.353286,-75.94203
23350,Exmore,VA,37.522269,-75.86132
23351,Exmore,VA,37.528076,-75.822769
23354,Franktown,VA,37.479588,-75.90262
23356,Greenbackville,VA,37.999025,-75.41634
23357,Greenbush,VA,37.754497,-75.67974
23358,Hacksneck,VA,37.635833,-75.86849
23359,Hallwood,VA,37.876357,-75.59686
23380,Exmore,VA,37.529341,-75.816851
23389,Harborton,VA,37.661513,-75.8315
23395,Horntown,VA,37.95715,-75.45296
23396,Oak Hall,VA,37.923682,-75.555142
23397,Isle Of Wight,VA,36.898915,-76.687745
23398,Jamesville,VA,37.534336,-75.877052
23399,Jenkins Bridge,VA,37.916218,-75.616754
23401,Keller,VA,37.61686,-75.76512
23404,Locustville,VA,37.635838,-75.66642
23405,Machipongo,VA,37.425567,-75.93117
23407,Mappsville,VA,37.848467,-75.55559
23408,Marionville,VA,37.424497,-75.877143
23409,Mears,VA,37.859953,-75.62995
23410,Melfa,VA,37.64682,-75.73996
23412,Modest Town,VA,37.790415,-75.60347
23413,Nassawadox,VA,37.452186,-75.84523
23414,Nelsonia,VA,37.816896,-75.583227
23415,New Church,VA,37.973042,-75.53045
23416,Oak Hall,VA,37.9268,-75.55339
23417,Onancock,VA,37.70973,-75.76272
23418,Onley,VA,37.685447,-75.71051
23419,Oyster,VA,37.307411,-75.926877
23420,Painter,VA,37.589068,-75.79947
23421,Parksley,VA,37.780966,-75.64895
23422,Pungoteague,VA,37.616183,-75.791519
23423,Quinby,VA,37.549044,-75.73237
23424,Rescue,VA,36.996881,-76.564516
23426,Sanford,VA,37.93359,-75.67692
23427,Saxis,VA,37.92358,-75.72178
23429,Seaview,VA,37.271104,-75.953608
23430,Smithfield,VA,36.978861,-76.63973
23431,Smithfield,VA,36.898915,-76.687745
23432,Suffolk,VA,36.871628,-76.56063
23433,Suffolk,VA,36.906805,-76.49899
23434,Suffolk,VA,36.735893,-76.59656
23435,Suffolk,VA,36.84882,-76.46521
23436,Suffolk,VA,36.894736,-76.51281
23437,Suffolk,VA,36.642645,-76.82272
23438,Suffolk,VA,36.578692,-76.70129
23439,Suffolk,VA,36.746101,-76.665251
23440,Tangier,VA,37.847652,-75.99404
23441,Tasley,VA,37.711442,-75.70044
23442,Temperanceville,VA,37.887538,-75.53645
23443,Townsend,VA,37.188217,-75.969003
23450,Virginia Beach,VA,36.844004,-76.12036
23451,Virginia Beach,VA,36.864788,-76.00098
23452,Virginia Beach,VA,36.839209,-76.09333
23453,Virginia Beach,VA,36.786753,-76.082079
23454,Virginia Beach,VA,36.838398,-76.02862
23455,Virginia Beach,VA,36.889797,-76.1426
23456,Virginia Beach,VA,36.762459,-76.06139
23457,Virginia Beach,VA,36.600219,-76.03592
23458,Virginia Beach,VA,36.847388,-76.15581
23459,Virginia Beach,VA,36.926647,-76.02058
23460,Virginia Beach,VA,36.837598,-76.026053
23461,Virginia Beach,VA,36.795328,-75.97768
23462,Virginia Beach,VA,36.839648,-76.15177
23463,Virginia Beach,VA,36.795669,-76.012628
23464,Virginia Beach,VA,36.799284,-76.17767
23465,Virginia Beach,VA,36.851243,-76.169215
23466,Virginia Beach,VA,36.795669,-76.012628
23467,Virginia Beach,VA,36.795669,-76.012628
23468,Virginia Beach,VA,36.843948,-76.142407
23471,Virginia Beach,VA,36.795669,-76.012628
23472,Gloucester Point,VA,37.294975,-76.527425
23479,Virginia Beach,VA,36.795669,-76.012628
23480,Wachapreague,VA,37.605335,-75.69088
23482,Wardtown,VA,37.273986,-75.86913
23483,Wattsville,VA,37.943726,-75.502306
23486,Willis Wharf,VA,37.518917,-75.810482
23487,Windsor,VA,36.828408,-76.73506
23488,Withams,VA,37.952168,-75.59681
23501,Norfolk,VA,36.895911,-76.208521
23502,Norfolk,VA,36.855247,-76.21233
23503,Norfolk,VA,36.942947,-76.2547
23504,Norfolk,VA,36.859362,-76.27028
23505,Norfolk,VA,36.913147,-76.28444
23506,Norfolk,VA,36.931166,-76.23972
23507,Norfolk,VA,36.864047,-76.29947
23508,Norfolk,VA,36.886447,-76.30065
23509,Norfolk,VA,36.880297,-76.2596
23510,Norfolk,VA,36.852547,-76.29028
23511,Norfolk,VA,36.935579,-76.303417
23512,Norfolk,VA,36.931166,-76.23972
23513,Norfolk,VA,36.888147,-76.23909
23514,Norfolk,VA,36.931166,-76.23972
23515,Norfolk,VA,36.931166,-76.23972
23517,Norfolk,VA,36.870197,-76.29271
23518,Norfolk,VA,36.916497,-76.21796
23519,Norfolk,VA,36.931166,-76.23972
23520,Norfolk,VA,36.931166,-76.23972
23521,Norfolk,VA,36.916397,-76.1527
23523,Norfolk,VA,36.830936,-76.27354
23529,Norfolk,VA,36.931166,-76.23972
23530,Norfolk,VA,36.931166,-76.23972
23541,Norfolk,VA,36.931166,-76.23972
23551,Norfolk,VA,36.931166,-76.23972
23601,Newport News,VA,37.053346,-76.45948
23602,Newport News,VA,37.115698,-76.5183
23603,Newport News,VA,37.193712,-76.57178
23604,Fort Eustis,VA,37.144943,-76.58677
23605,Newport News,VA,37.019453,-76.43651
23606,Newport News,VA,37.078196,-76.49446
23607,Newport News,VA,36.987151,-76.4195
23608,Newport News,VA,37.151315,-76.54812
23609,Newport News,VA,37.195924,-76.524805
23612,Newport News,VA,37.195924,-76.524805
23620,Franklin,VA,36.694658,-76.965091
23628,Newport News,VA,37.195924,-76.524805
23630,Hampton,VA,37.072658,-76.38992
23631,Hampton,VA,37.072658,-76.38992
23642,Virginia Beach,VA,36.843073,-76.154882
23651,Fort Monroe,VA,37.002997,-76.32039
23653,Hampton,VA,37.072658,-76.38992
23661,Hampton,VA,37.005814,-76.38316
23662,Poquoson,VA,37.131237,-76.38089
23663,Hampton,VA,37.031474,-76.31637
23664,Hampton,VA,37.056778,-76.29373
23665,Hampton,VA,37.098317,-76.4196
23666,Hampton,VA,37.050946,-76.40711
23667,Hampton,VA,37.019346,-76.331815
23668,Hampton,VA,37.020596,-76.337715
23669,Hampton,VA,37.037946,-76.34415
23670,Hampton,VA,37.072658,-76.38992
23681,Hampton,VA,37.072658,-76.38992
23690,Yorktown,VA,37.227904,-76.51278
23691,Yorktown,VA,37.257932,-76.56076
23692,Yorktown,VA,37.178417,-76.46751
23693,Yorktown,VA,37.112915,-76.43591
23694,Lackey,VA,37.223152,-76.55901
23696,Seaford,VA,37.191262,-76.42135
23701,Portsmouth,VA,36.810448,-76.36811
23702,Portsmouth,VA,36.803981,-76.32386
23703,Portsmouth,VA,36.867248,-76.382320000000007
23704,Portsmouth,VA,36.830748,-76.31369
23705,Portsmouth,VA,36.868553,-76.355165
23707,Portsmouth,VA,36.835215,-76.3457
23708,Portsmouth,VA,36.846562,-76.30803
23709,Portsmouth,VA,36.868553,-76.355165
23801,Fort Lee,VA,37.241173,-77.34845
23803,Petersburg,VA,37.21695,-77.43063
23804,Petersburg,VA,37.204765,-77.392784
23805,Petersburg,VA,37.174217,-77.39008
23806,Petersburg,VA,37.204765,-77.392784
23810,Cape Charles,VA,37.268263,-76.007162
23814,Gloucester Point,VA,37.285231,-76.531577
23821,Alberta,VA,36.87229,-77.91125
23822,Ammon,VA,37.072361,-77.647495
23824,Blackstone,VA,37.070975,-77.98876
23825,Blackstone,VA,37.08,-77.99
23827,Boykins,VA,36.602472,-77.20851
23828,Branchville,VA,36.582188,-77.27759
23829,Capron,VA,36.724498,-77.21893
23830,Carson,VA,37.01775,-77.39475
23831,Chester,VA,37.350999,-77.43959
23832,Chesterfield,VA,37.405699,-77.5838
23833,Church Road,VA,37.197024,-77.66932
23834,Colonial Heights,VA,37.265403,-77.40438
23836,Chester,VA,37.343005,-77.34604
23837,Courtland,VA,36.740306,-77.07132
23838,Chesterfield,VA,37.328232,-77.61364
23839,Dendron,VA,37.079298,-76.92155
23840,Dewitt,VA,37.066833,-77.6675
23841,Dinwiddie,VA,37.055849,-77.56349
23842,Disputanta,VA,37.126708,-77.23281
23843,Dolphin,VA,36.848712,-77.80682
23844,Drewryville,VA,36.688788,-77.31072
23845,Ebony,VA,36.554164,-78.01408
23846,Elberon,VA,37.064244,-76.82637
23847,Emporia,VA,36.68627,-77.56121
23850,Ford,VA,37.169066,-77.74358
23851,Franklin,VA,36.668255,-76.93945
23856,Freeman,VA,36.776189,-77.71289
23857,Gasburg,VA,36.576549,-77.88467
23860,Hopewell,VA,37.287869,-77.29359
23866,Ivor,VA,36.907991,-76.89025
23867,Jarratt,VA,36.811276,-77.47496
23868,Lawrenceville,VA,36.722176,-77.81269
23870,Jarratt,VA,36.721471,-77.531996
23872,McKenney,VA,36.993498,-77.74687
23873,Meredithville,VA,36.80878,-77.954397
23874,Newsoms,VA,36.610636,-77.10269
23875,Prince George,VA,37.235949,-77.30259
23876,Rawlings,VA,36.951449,-77.82402
23878,Sedley,VA,36.822024,-77.02404
23879,Skippers,VA,36.584448,-77.58854
23881,Spring Grove,VA,37.181764,-77.0026
23882,Stony Creek,VA,36.928972,-77.41971
23883,Surry,VA,37.14051,-76.74342
23884,Sussex,VA,36.945667,-77.253913
23885,Sutherland,VA,37.191579,-77.56682
23887,Valentines,VA,36.563755,-77.82652
23888,Wakefield,VA,36.963354,-76.98127
23889,Warfield,VA,36.912369,-77.75239
23890,Waverly,VA,37.005989,-77.09819
23891,Waverly,VA,36.909845,-77.286287
23893,White Plains,VA,36.628802,-77.92817
23894,Wilsons,VA,37.127935,-77.83918
23897,Yale,VA,36.828831,-77.28288
23898,Zuni,VA,36.836423,-76.83731
23899,Claremont,VA,37.227291,-76.96545
23901,Farmville,VA,37.307946,-78.40144
23909,Farmville,VA,37.301574,-78.394944
23915,Baskerville,VA,36.694531,-78.28794
23917,Boydton,VA,36.615944,-78.3102
23919,Bracey,VA,36.567521,-78.12176
23920,Brodnax,VA,36.732859,-77.99591
23921,Buckingham,VA,37.581656,-78.62058
23922,Burkeville,VA,37.191053,-78.2117
23923,Charlotte Court House,VA,37.074876,-78.63263
23924,Chase City,VA,36.806422,-78.46048
23927,Clarksville,VA,36.61665,-78.54018
23930,Crewe,VA,37.173493,-78.11236
23934,Cullen,VA,37.164981,-78.62592
23936,Dillwyn,VA,37.529284,-78.49082
23937,Drakes Branch,VA,36.958048,-78.53403
23938,Dundas,VA,36.909504,-78.00646
23939,Evergreen,VA,37.312972,-78.77203
23941,Fort Mitchell,VA,36.948129,-78.248333
23942,Green Bay,VA,37.129269,-78.30107
23943,Hampden Sydney,VA,37.241732,-78.4632
23944,Kenbridge,VA,36.925375,-78.11767
23947,Keysville,VA,37.029877,-78.4643
23950,La Crosse,VA,36.678507,-78.08098
23952,Lunenburg,VA,36.930088,-78.29215
23954,Meherrin,VA,37.097705,-78.37823
23955,Nottoway,VA,37.116094,-78.057832
23958,Pamplin,VA,37.264896,-78.66558
23959,Phenix,VA,37.094313,-78.77182
23960,Prospect,VA,37.310203,-78.55359
23962,Randolph,VA,37.017706,-78.73668
23963,Red House,VA,37.197072,-78.81694
23964,Red Oak,VA,36.780021,-78.62102
23966,Rice,VA,37.284087,-78.27559
23967,Saxe,VA,36.913228,-78.63611
23968,Skipwith,VA,36.702863,-78.51218
23970,South Hill,VA,36.733874,-78.17287
23974,Victoria,VA,36.987595,-78.23285
23976,Wylliesburg,VA,36.848612,-78.59064
23999,Richmond,VA,37.561962,-77.425452
24001,Roanoke,VA,37.274175,-79.95786
24002,Roanoke,VA,37.274175,-79.95786
24003,Roanoke,VA,37.274175,-79.95786
24004,Roanoke,VA,37.274175,-79.95786
24005,Roanoke,VA,37.274175,-79.95786
24006,Roanoke,VA,37.274175,-79.95786
24007,Roanoke,VA,37.274175,-79.95786
24008,Roanoke,VA,37.274175,-79.95786
24009,Roanoke,VA,37.274175,-79.95786
24010,Roanoke,VA,37.274175,-79.95786
24011,Roanoke,VA,37.270637,-79.94155
24012,Roanoke,VA,37.305769,-79.92767
24013,Roanoke,VA,37.267137,-79.92645
24014,Roanoke,VA,37.236753,-79.93549
24015,Roanoke,VA,37.258787,-79.97816
24016,Roanoke,VA,37.272186,-79.95321
24017,Roanoke,VA,37.290886,-79.98256
24018,Roanoke,VA,37.229786,-80.02477
24019,Roanoke,VA,37.341428,-79.95049
24020,Roanoke,VA,37.357149,-79.94541
24022,Roanoke,VA,37.278439,-79.933206
24023,Roanoke,VA,37.210663,-80.406172
24024,Roanoke,VA,37.274175,-79.95786
24025,Roanoke,VA,37.274175,-79.95786
24026,Roanoke,VA,37.274175,-79.95786
24027,Roanoke,VA,37.274175,-79.95786
24028,Roanoke,VA,37.274175,-79.95786
24029,Roanoke,VA,37.274175,-79.95786
24030,Roanoke,VA,37.274175,-79.95786
24031,Roanoke,VA,37.274175,-79.95786
24032,Roanoke,VA,37.274175,-79.95786
24033,Roanoke,VA,37.274175,-79.95786
24034,Roanoke,VA,37.274175,-79.95786
24035,Roanoke,VA,37.274175,-79.95786
24036,Roanoke,VA,37.274175,-79.95786
24037,Roanoke,VA,37.274175,-79.95786
24038,Roanoke,VA,37.274175,-79.95786
24040,Roanoke,VA,37.274175,-79.95786
24042,Roanoke,VA,37.271687,-79.939228
24043,Roanoke,VA,37.269168,-79.939905
24044,Roanoke,VA,37.274175,-79.95786
24045,Roanoke,VA,37.268618,-79.940655
24048,Roanoke,VA,37.274175,-79.95786
24050,Roanoke,VA,37.555083,-79.786151
24053,Ararat,VA,36.618824,-80.53102
24054,Axton,VA,36.677075,-79.70604
24055,Bassett,VA,36.757893,-80.00161
24058,Belspring,VA,37.189876,-80.59761
24059,Bent Mountain,VA,37.146244,-80.12562
24060,Blacksburg,VA,37.232027,-80.42127
24061,Blacksburg,VA,37.179115,-80.351482
24062,Blacksburg,VA,37.174227,-80.395698
24063,Blacksburg,VA,37.174227,-80.395698
24064,Blue Ridge,VA,37.373117,-79.79043
24065,Boones Mill,VA,37.116716,-79.95528
24066,Buchanan,VA,37.532991,-79.68004
24067,Callaway,VA,37.010772,-80.08111
24068,Christiansburg,VA,37.154804,-80.418396
24069,Cascade,VA,36.586545,-79.64194
24070,Catawba,VA,37.361962,-80.19485
24072,Check,VA,37.040036,-80.2167
24073,Christiansburg,VA,37.136013,-80.41222
24076,Claudville,VA,36.580514,-80.4332
24077,Cloverdale,VA,37.369313,-79.90303
24078,Collinsville,VA,36.720217,-79.91425
24079,Copper Hill,VA,37.043459,-80.14868
24082,Critz,VA,36.625817,-80.13542
24083,Daleville,VA,37.407301,-79.91761
24084,Dublin,VA,37.107273,-80.67384
24085,Eagle Rock,VA,37.671394,-79.81681
24086,Eggleston,VA,37.287326,-80.62194
24087,Elliston,VA,37.218668,-80.2335
24088,Ferrum,VA,36.901203,-80.0715
24089,Fieldale,VA,36.70487,-79.95681
24090,Fincastle,VA,37.512912,-79.87046
24091,Floyd,VA,36.910051,-80.30871
24092,Glade Hill,VA,37.014685,-79.75335
24093,Glen Lyn,VA,37.377877,-80.85658
24094,Goldbond,VA,37.427111,-80.55227
24095,Goodview,VA,37.21556,-79.73922
24101,Hardy,VA,37.180713,-79.76536
24102,Henry,VA,36.838473,-79.99093
24104,Huddleston,VA,37.107479,-79.53046
24105,Indian Valley,VA,36.901524,-80.5936
24111,McCoy,VA,37.174227,-80.395698
24112,Martinsville,VA,36.696264,-79.86879
24113,Martinsville,VA,36.679571,-79.865168
24114,Martinsville,VA,36.679571,-79.865168
24115,Martinsville,VA,36.679571,-79.865168
24120,Meadows Of Dan,VA,36.720001,-80.41975
24121,Moneta,VA,37.145705,-79.64786
24122,Montvale,VA,37.413397,-79.70789
24124,Narrows,VA,37.331818,-80.80847
24126,Newbern,VA,37.069206,-80.689067
24127,New Castle,VA,37.505033,-80.17302
24128,Newport,VA,37.325758,-80.47021
24129,New River,VA,37.096403,-80.608056
24130,Oriskany,VA,37.555083,-79.786151
24131,Paint Bank,VA,37.562902,-80.2538
24132,Parrott,VA,37.210996,-80.62751
24133,Patrick Springs,VA,36.677978,-80.13511
24134,Pearisburg,VA,37.291252,-80.73601
24136,Pembroke,VA,37.31803,-80.62267
24137,Penhook,VA,36.947422,-79.63536
24138,Pilot,VA,37.048647,-80.32048
24139,Pittsville,VA,37.010279,-79.47217
24141,Radford,VA,37.11979,-80.57325
24142,Radford,VA,37.138427,-80.55031
24143,Radford,VA,37.122583,-80.562913
24146,Redwood,VA,37.006912,-79.913875
24147,Rich Creek,VA,37.38389,-80.81734
24148,Ridgeway,VA,36.595224,-79.87353
24149,Riner,VA,37.011934,-80.41897
24150,Ripplemead,VA,37.351691,-80.67726
24151,Rocky Mount,VA,36.980013,-79.88027
24153,Salem,VA,37.288807,-80.07821
24155,Salem,VA,37.288384,-80.067062
24156,Salem,VA,37.288384,-80.067062
24157,Salem,VA,37.288384,-80.067062
24161,Sandy Level,VA,36.985629,-79.53939
24162,Shawsville,VA,37.14374,-80.26233
24165,Spencer,VA,36.590431,-80.03589
24167,Staffordsville,VA,37.240021,-80.73083
24168,Stanleytown,VA,36.734651,-79.94572
24171,Stuart,VA,36.655575,-80.23909
24174,Thaxton,VA,37.357587,-79.66552
24175,Troutville,VA,37.427597,-79.90595
24176,Union Hall,VA,37.024494,-79.69241
24177,Vesta,VA,36.724064,-80.35806
24178,Villamont,VA,37.310494,-79.789799
24179,Vinton,VA,37.276218,-79.8524
24184,Wirtz,VA,37.068743,-79.74911
24185,Woolwine,VA,36.806528,-80.26895
24201,Bristol,VA,36.606582,-82.18087
24202,Bristol,VA,36.645419,-82.18137
24203,Bristol,VA,36.761613,-81.968712
24205,Bristol,VA,36.59,-82.18
24209,Bristol,VA,36.761613,-81.968712
24210,Abingdon,VA,36.728639,-82.00845
24211,Abingdon,VA,36.657812,-81.96207
24212,Abingdon,VA,36.690942,-81.970764
24215,Andover,VA,36.921924,-82.79644
24216,Appalachia,VA,36.919476,-82.78974
24217,Bee,VA,37.082275,-82.18978
24218,Ben Hur,VA,36.733931,-83.0635
24219,Big Stone Gap,VA,36.851953,-82.77056
24220,Birchleaf,VA,37.138489,-82.25643
24221,Blackwater,VA,36.627827,-82.96464
24224,Castlewood,VA,36.870051,-82.27792
24225,Cleveland,VA,36.968491,-82.1623
24226,Clinchco,VA,37.147222,-82.34369
24228,Clintwood,VA,37.153509,-82.44936
24230,Coeburn,VA,36.952634,-82.46657
24236,Damascus,VA,36.624632,-81.76732
24237,Dante,VA,37.001752,-82.28089
24239,Davenport,VA,37.107474,-82.12413
24243,Dryden,VA,36.780481,-82.94428
24244,Duffield,VA,36.70122,-82.79538
24245,Dungannon,VA,36.844539,-82.49147
24246,East Stone Gap,VA,36.864429,-82.737469
24248,Ewing,VA,36.62928,-83.48322
24250,Fort Blackmore,VA,36.759614,-82.59473
24251,Gate City,VA,36.642027,-82.58685
24256,Haysi,VA,37.213189,-82.29759
24258,Hiltons,VA,36.658518,-82.42645
24260,Honaker,VA,37.02264,-81.99859
24263,Jonesville,VA,36.687716,-83.15587
24265,Keokee,VA,36.851769,-82.93593
24266,Lebanon,VA,36.876177,-82.110830000000007
24269,McClure,VA,37.103304,-82.37613
24270,Mendota,VA,36.720381,-82.26093
24271,Nickelsville,VA,36.741128,-82.41823
24272,Nora,VA,37.008665,-82.35244
24273,Norton,VA,36.942047,-82.63138
24274,Pound,VA,37.126639,-82.59599
24277,Pennington Gap,VA,36.756705,-83.04178
24279,Pound,VA,37.10297,-82.59626
24280,Rosedale,VA,36.954936,-81.94252
24281,Rose Hill,VA,36.65364,-83.34736
24282,Saint Charles,VA,36.805965,-83.05467
24283,Saint Paul,VA,36.943316,-82.33154
24285,Stonega,VA,36.953228,-82.79025
24289,Trammel,VA,37.130943,-82.344881
24290,Weber City,VA,36.617348,-82.5666
24292,Whitetop,VA,36.59565,-81.59154
24293,Wise,VA,36.979817,-82.56963
24301,Pulaski,VA,37.053297,-80.7728
24311,Atkins,VA,36.870607,-81.40497
24312,Austinville,VA,36.837699,-80.85731
24313,Barren Springs,VA,36.909335,-80.80411
24314,Bastian,VA,37.183901,-81.17641
24315,Bland,VA,37.107412,-81.0571
24316,Broadford,VA,36.937195,-81.67617
24317,Cana,VA,36.609475,-80.67102
24318,Ceres,VA,36.982193,-81.38945
24319,Chilhowie,VA,36.776534,-81.65827
24322,Cripple Creek,VA,36.820139,-81.11128
24323,Crockett,VA,36.88091,-81.1992
24324,Draper,VA,36.973028,-80.79309
24325,Dugspur,VA,36.801489,-80.60492
24326,Elk Creek,VA,36.729236,-81.2001
24327,Emory,VA,36.773659,-81.82771
24328,Fancy Gap,VA,36.659171,-80.70387
24330,Fries,VA,36.721913,-81.00535
24333,Galax,VA,36.649548,-80.92683
24338,Fries,VA,36.718307,-80.978273
24340,Glade Spring,VA,36.772376,-81.7742
24343,Hillsville,VA,36.750353,-80.68706
24347,Hiwassee,VA,36.958829,-80.65995
24348,Independence,VA,36.626454,-81.16554
24350,Ivanhoe,VA,36.809933,-80.99526
24351,Lambsburg,VA,36.580074,-80.76311
24352,Laurel Fork,VA,36.708515,-80.52791
24354,Marion,VA,36.828526,-81.53045
24360,Max Meadows,VA,36.933981,-80.92897
24361,Meadowview,VA,36.763059,-81.84774
24363,Mouth Of Wilson,VA,36.597486,-81.37604
24366,Rocky Gap,VA,37.261609,-81.10659
24368,Rural Retreat,VA,36.889364,-81.28162
24370,Saltville,VA,36.893445,-81.74825
24373,Seven Mile Ford,VA,36.826371,-81.549231
24374,Speedwell,VA,36.813383,-81.19791
24375,Sugar Grove,VA,36.790265,-81.37541
24377,Tannersville,VA,37.000956,-81.54797
24378,Trout Dale,VA,36.684567,-81.43411
24379,Volney,VA,36.682782,-81.257795
24380,Willis,VA,36.853525,-80.52024
24381,Woodlawn,VA,36.714663,-80.82602
24382,Wytheville,VA,36.947446,-81.09439
24401,Staunton,VA,38.146216,-79.07625
24402,Staunton,VA,38.159275,-79.062858
24407,Staunton,VA,38.179715,-79.141332
24411,Augusta Springs,VA,38.091705,-79.322363
24412,Bacova,VA,38.054111,-79.84575
24413,Blue Grass,VA,38.521373,-79.58361
24415,Brownsburg,VA,37.929347,-79.31644
24416,Buena Vista,VA,37.74078,-79.35038
24421,Churchville,VA,38.252683,-79.17339
24422,Clifton Forge,VA,37.821088,-79.79619
24426,Covington,VA,37.772399,-80.02705
24430,Craigsville,VA,38.085244,-79.36209
24431,Crimora,VA,38.167914,-78.84222
24432,Deerfield,VA,38.178513,-79.42701
24433,Doe Hill,VA,38.443961,-79.44072
24435,Fairfield,VA,37.871126,-79.29041
24437,Fort Defiance,VA,38.212067,-78.94563
24438,Glen Wilton,VA,37.555083,-79.786151
24439,Goshen,VA,37.997778,-79.48004
24440,Greenville,VA,37.996542,-79.15354
24441,Grottoes,VA,38.255747,-78.8242
24442,Head Waters,VA,38.345202,-79.38497
24444,Iron Gate,VA,37.799435,-79.790895
24445,Hot Springs,VA,37.970734,-79.89283
24448,Iron Gate,VA,37.797214,-79.79002
24450,Lexington,VA,37.794344,-79.47658
24457,Low Moor,VA,37.802424,-79.86351
24458,McDowell,VA,38.322663,-79.54418
24459,Middlebrook,VA,38.042173,-79.28175
24460,Millboro,VA,38.015153,-79.65065
24463,Mint Spring,VA,38.064112,-79.10979
24464,Montebello,VA,37.897702,-79.08939
24465,Monterey,VA,38.374628,-79.63611
24467,Mount Sidney,VA,38.258308,-78.95941
24468,Mustoe,VA,38.385967,-79.559157
24469,New Hope,VA,38.179715,-79.141332
24471,Port Republic,VA,38.310311,-78.80409
24472,Raphine,VA,37.936577,-79.22828
24473,Rockbridge Baths,VA,37.912977,-79.39906
24474,Selma,VA,37.805268,-79.84752
24475,Spottswood,VA,37.9651,-79.2357
24476,Steeles Tavern,VA,38.179715,-79.141332
24477,Stuarts Draft,VA,38.01473,-79.02733
24479,Swoope,VA,38.151767,-79.21998
24482,Verona,VA,38.19958,-78.99553
24483,Vesuvius,VA,37.819652,-79.21508
24484,Warm Springs,VA,38.103122,-79.81478
24485,West Augusta,VA,38.270442,-79.33402
24486,Weyers Cave,VA,38.290722,-78.92423
24487,Williamsville,VA,38.197757,-79.57766
24501,Lynchburg,VA,37.390209,-79.16132
24502,Lynchburg,VA,37.362109,-79.21525
24503,Lynchburg,VA,37.440641,-79.20923
24504,Lynchburg,VA,37.400275,-79.12597
24505,Lynchburg,VA,37.400944,-79.178506
24506,Lynchburg,VA,37.381692,-79.161046
24512,Lynchburg,VA,37.242503,-79.109789
24513,Lynchburg,VA,37.245798,-79.133546
24514,Lynchburg,VA,37.400944,-79.178506
24515,Lynchburg,VA,37.400944,-79.178506
24517,Altavista,VA,37.127543,-79.27409
24520,Alton,VA,36.561396,-79.05268
24521,Amherst,VA,37.616606,-79.08763
24522,Appomattox,VA,37.374688,-78.80585
24523,Bedford,VA,37.339184,-79.52839
24526,Big Island,VA,37.528701,-79.39812
24527,Blairs,VA,36.725028,-79.35877
24528,Brookneal,VA,37.079385,-78.90765
24529,Buffalo Junction,VA,36.631531,-78.63806
24530,Callands,VA,36.807043,-79.61864
24531,Chatham,VA,36.836822,-79.45193
24533,Clifford,VA,37.582488,-78.93618
24534,Clover,VA,36.864697,-78.76019
24535,Cluster Springs,VA,36.611317,-78.945519
24536,Coleman Falls,VA,37.486603,-79.30501
24538,Concord,VA,37.343394,-78.96433
24539,Crystal Hill,VA,36.861612,-78.91187
24540,Danville,VA,36.622638,-79.39998
24541,Danville,VA,36.581085,-79.45027
24542,Danville,VA,36.579313,-79.398748
24543,Danville,VA,36.592679,-79.410983
24544,Danville,VA,36.592679,-79.410983
24549,Dry Fork,VA,36.710985,-79.48517
24550,Evington,VA,37.237928,-79.28268
24551,Forest,VA,37.366744,-79.29977
24553,Gladstone,VA,37.541726,-78.80777
24554,Gladys,VA,37.142894,-79.05412
24555,Glasgow,VA,37.641788,-79.45652
24556,Goode,VA,37.361512,-79.3981
24557,Gretna,VA,36.971021,-79.31787
24558,Halifax,VA,36.774635,-78.93426
24562,Howardsville,VA,37.715293,-78.64175
24563,Hurt,VA,37.071568,-79.2923
24565,Java,VA,36.842686,-79.19748
24566,Keeling,VA,36.726236,-79.26279
24569,Long Island,VA,37.041512,-79.1278
24570,Lowry,VA,37.333936,-79.406303
24571,Lynch Station,VA,37.133274,-79.37324
24572,Madison Heights,VA,37.461272,-79.09364
24574,Monroe,VA,37.576208,-79.26133
24576,Naruna,VA,37.245798,-79.133546
24577,Nathalie,VA,36.940538,-78.98017
24578,Natural Bridge,VA,37.650711,-79.55269
24579,Natural Bridge Station,VA,37.597531,-79.50659
24580,Nelson,VA,36.589704,-78.66151
24581,Norwood,VA,37.644171,-78.79447
24585,Republican Grove,VA,36.801515,-78.883933
24586,Ringgold,VA,36.595244,-79.28647
24588,Rustburg,VA,37.268024,-79.11686
24589,Scottsburg,VA,36.759749,-78.78547
24590,Scottsville,VA,37.806508,-78.48134
24592,South Boston,VA,36.701855,-78.92008
24593,Spout Spring,VA,37.320709,-78.91071
24594,Sutherlin,VA,36.635902,-79.1968
24595,Sweet Briar,VA,37.556248,-79.08249
24597,Vernon Hill,VA,36.782331,-79.1237
24598,Virgilina,VA,36.592597,-78.78207
24599,Wingina,VA,37.638783,-78.71934
24601,Amonate,VA,37.177549,-81.6578
24602,Bandy,VA,37.170062,-81.64412
24603,Big Rock,VA,37.371119,-82.1645
24604,Bishop,VA,37.201022,-81.53963
24605,Bluefield,VA,37.222548,-81.3367
24606,Boissevain,VA,37.28526,-81.38993
24607,Breaks,VA,37.297387,-82.27942
24608,Burkes Garden,VA,37.13549,-81.563406
24609,Cedar Bluff,VA,37.055512,-81.76922
24612,Doran,VA,37.091572,-81.84119
24613,Falls Mills,VA,37.273973,-81.31688
24614,Grundy,VA,37.296213,-82.05775
24618,Harman,VA,37.287992,-82.027408
24619,Horsepen,VA,37.13549,-81.563406
24620,Hurley,VA,37.409883,-82.02317
24622,Jewell Ridge,VA,37.214471,-81.78967
24624,Keen Mountain,VA,37.204272,-81.97936
24627,Mavisdale,VA,37.287992,-82.027408
24628,Maxie,VA,37.308652,-82.18593
24630,North Tazewell,VA,37.155621,-81.49787
24631,Oakwood,VA,37.223011,-82.00538
24634,Pilgrims Knob,VA,37.250363,-81.89766
24635,Pocahontas,VA,37.305821,-81.34697
24637,Pounding Mill,VA,37.076801,-81.70519
24639,Raven,VA,37.136584,-81.89068
24640,Red Ash,VA,37.13549,-81.563406
24641,Richlands,VA,37.098588,-81.80607
24646,Rowe,VA,37.14445,-81.99735
24647,Shortt Gap,VA,37.287992,-82.027408
24649,Swords Creek,VA,37.077291,-81.91973
24651,Tazewell,VA,37.113004,-81.50326
24656,Vansant,VA,37.198005,-82.12193
24657,Whitewood,VA,37.226416,-81.86739
24658,Wolford,VA,37.287992,-82.027408
